CCSDS_OMM_VERS = 2.0
CREATION_DATE  = 
ORIGINATOR     = 

OBJECT_NAME    = ELECTRON KICK STAGE R/B
OBJECT_ID      = 2025-252C
CENTER_NAME    = EARTH
REF_FRAME      = TEME
TIME_SYSTEM    = UTC
MEAN_ELEMENT_THEORY = SGP/SGP4

EPOCH          = 2025-11-05T21:56:53.518848
MEAN_MOTION    = 15.58079017
ECCENTRICITY   = .0208812
INCLINATION    = 41.9820
RA_OF_ASC_NODE = 277.1096
ARG_OF_PERICENTER = 235.1722
MEAN_ANOMALY   = 122.9324

EPHEMERIS_TYPE = 0
CLASSIFICATION_TYPE = U
NORAD_CAT_ID   = 66318
ELEMENT_SET_NO = 999
REV_AT_EPOCH   = 1
BSTAR          = .26876E-3
MEAN_MOTION_DOT = .5927E-3
MEAN_MOTION_DDOT = .78551E-5

