ELECTRON KICK STAGE R/B 
1 66318U 25252C   25309.91450832  .00059270  78551-5  26876-3 0  9997
2 66318  41.9820 277.1096 0208812 235.1722 122.9324 15.58079017    12
